IRIDIUM 36 [-]          
1 24967U 97056C   24004.61484327  .00000410  00000+0  13281-3 0  9992
2 24967  86.3958  35.3481 0002039  90.3485 269.7946 14.36569446376160
IRIDIUM 39 [-]          
1 25042U 97069D   24005.20684966  .00000624  00000+0  16379-3 0  9996
2 25042  86.3906  77.7263 0016229 271.2411  88.6933 14.47603337372655
IRIDIUM 38 [-]          
1 25043U 97069E   24005.23134783  .00000486  00000+0  15712-3 0  9993
2 25043  86.3959  95.5661 0003802  74.1862 285.9754 14.37039631370220
IRIDIUM 42 [-]          
1 25077U 97077A   24004.81154262  .00000436  00000+0  14547-3 0  9996
2 25077  86.3966 101.2683 0002589  84.0934 276.0558 14.35335410365235
IRIDIUM 44 [-]          
1 25078U 97077B   24004.72183623  .00000465  00000+0  14407-3 0  9997
2 25078  86.3949  84.6451 0001840  37.7892 322.3436 14.39147262367525
IRIDIUM 45 [-]          
1 25104U 97082A   24004.83673685  .00007508  00000+0  46005-3 0  9991
2 25104  86.3760 299.1008 0176204 114.6531 247.3166 14.97833999372210
IRIDIUM 24 [-]          
1 25105U 97082B   24004.87353111  .00000618  00000+0  18630-3 0  9993
2 25105  86.3917 304.4527 0012732  34.5026 325.6998 14.40915112366969
IRIDIUM 51 [-]          
1 25262U 98018A   24004.89583412  .00012758  00000+0  66751-3 0  9993
2 25262  86.3901 309.3765 0162382  66.7296 295.0938 15.04908864366654
